{"type": "FeatureCollection", "features": [ {"type": "Feature", "properties": {"norad_id": 37331, "name": "COSMOS 2251 DEB", "group": "cosmos-2251-debris", "lat": -24.50663897961946, "lon": 62.12748903577963, "alt_km": 793.2934889630169, "timestamp": "2025-12-11T18:59:46.473194+00:00", "meta": {"OBJECT_NAME": "COSMOS 2251 DEB", "OBJECT_ID": "1993-036BKX", "EPOCH": "2025-12-08T12:28:40.679328", "MEAN_MOTION": 14.35004102, "ECCENTRICITY": 0.0054894, "INCLINATION": 74.0752, "RA_OF_ASC_NODE": 75.5859, "ARG_OF_PERICENTER": 91.1646, "MEAN_ANOMALY": 269.5796, "EPHEMERIS_TYPE": 0, "CLASSIFICATION_TYPE": "U", "NORAD_CAT_ID": 37331, "ELEMENT_SET_NO": 999, "REV_AT_EPOCH": 84699, "BSTAR": 0.00094274204, "MEAN_MOTION_DOT": 2.707e-05, "MEAN_MOTION_DDOT": 0}, "tle": {"line1": "1 37331U 93036BKX 25342.51991527  .00002707  00000+0  94274-3 0  9997", "line2": "2 37331  74.0752  75.5859 0054894  91.1646 269.5796 14.35004102846990"}}, "geometry": {"type": "Point", "coordinates": [62.12748903577963, -24.50663897961946]}}, {"type": "Feature", "properties": {"norad_id": 37336, "name": "COSMOS 2251 DEB", "group": "cosmos-2251-debris", "lat": -35.45425231006037, "lon": -38.81203985587111, "alt_km": 787.6853895542563, "timestamp": "2025-12-11T18:59:46.473204+00:00", "meta": {"OBJECT_NAME": "COSMOS 2251 DEB", "OBJECT_ID": "1993-036BLC", "EPOCH": "2025-12-09T16:53:45.179232", "MEAN_MOTION": 14.32756828, "ECCENTRICITY": 0.00287573, "INCLINATION": 74.0407, "RA_OF_ASC_NODE": 336.7551, "ARG_OF_PERICENTER": 55.3677, "MEAN_ANOMALY": 305.0179, "EPHEMERIS_TYPE": 0, "CLASSIFICATION_TYPE": "U", "NORAD_CAT_ID": 37336, "ELEMENT_SET_NO": 999, "REV_AT_EPOCH": 65076, "BSTAR": 0.00013225409, "MEAN_MOTION_DOT": 3.36e-06, "MEAN_MOTION_DDOT": 0}, "tle": {"line1": "1 37336U 93036BLC 25343.70399513  .00000336  00000+0  13225-3 0  9994", "line2": "2 37336  74.0407 336.7551 0028757  55.3677 305.0179 14.32756828650763"}}, "geometry": {"type": "Point", "coordinates": [-38.81203985587111, -35.45425231006037]}}, {"type": "Feature", "properties": {"norad_id": 37340, "name": "COSMOS 2251 DEB", "group": "cosmos-2251-debris", "lat": 10.104546941013426, "lon": 95.97382885572456, "alt_km": 781.338097945807, "timestamp": "2025-12-11T18:59:46.473214+00:00", "meta": {"OBJECT_NAME": "COSMOS 2251 DEB", "OBJECT_ID": "1993-036BLG", "EPOCH": "2025-12-10T05:27:04.576320", "MEAN_MOTION": 14.36918375, "ECCENTRICITY": 0.001764, "INCLINATION": 74.0254, "RA_OF_ASC_NODE": 281.7768, "ARG_OF_PERICENTER": 17.3878, "MEAN_ANOMALY": 342.7875, "EPHEMERIS_TYPE": 0, "CLASSIFICATION_TYPE": "U", "NORAD_CAT_ID": 37340, "ELEMENT_SET_NO": 999, "REV_AT_EPOCH": 84031, "BSTAR": 0.00034258, "MEAN_MOTION_DOT": 9.89e-06, "MEAN_MOTION_DDOT": 0}, "tle": {"line1": "1 37340U 93036BLG 25344.22713630  .00000989  00000+0  34258-3 0  9990", "line2": "2 37340  74.0254 281.7768 0017640  17.3878 342.7875 14.36918375840311"}}, "geometry": {"type": "Point", "coordinates": [95.97382885572456, 10.104546941013426]}}, {"type": "Feature", "properties": {"norad_id": 37483, "name": "COSMOS 2251 DEB", "group": "cosmos-2251-debris", "lat": -70.23366089472322, "lon": 18.22509911691833, "alt_km": 757.1876964097282, "timestamp": "2025-12-11T18:59:46.473225+00:00", "meta": {"OBJECT_NAME": "COSMOS 2251 DEB", "OBJECT_ID": "1993-036BLL", "EPOCH": "2025-12-09T17:33:52.143264", "MEAN_MOTION": 14.43549902, "ECCENTRICITY": 0.00929617, "INCLINATION": 73.9727, "RA_OF_ASC_NODE": 148.9468, "ARG_OF_PERICENTER": 356.1236, "MEAN_ANOMALY": 3.9188, "EPHEMERIS_TYPE": 0, "CLASSIFICATION_TYPE": "U", "NORAD_CAT_ID": 37483, "ELEMENT_SET_NO": 999, "REV_AT_EPOCH": 65236, "BSTAR": 0.0003462404, "MEAN_MOTION_DOT": 1.207e-05, "MEAN_MOTION_DDOT": 0}, "tle": {"line1": "1 37483U 93036BLL 25343.73185351  .00001207  00000+0  34624-3 0  9997", "line2": "2 37483  73.9727 148.9468 0092961 356.1236   3.9188 14.43549902652367"}}, "geometry": {"type": "Point", "coordinates": [18.22509911691833, -70.23366089472322]}}, {"type": "Feature", "properties": {"norad_id": 37484, "name": "COSMOS 2251 DEB", "group": "cosmos-2251-debris", "lat": 25.125408228990985, "lon": 22.39890415891281, "alt_km": 752.1530465647738, "timestamp": "2025-12-11T18:59:46.473235+00:00", "meta": {"OBJECT_NAME": "COSMOS 2251 DEB", "OBJECT_ID": "1993-036BLM", "EPOCH": "2025-12-08T23:58:05.079360", "MEAN_MOTION": 14.41757676, "ECCENTRICITY": 0.0040001, "INCLINATION": 73.8236, "RA_OF_ASC_NODE": 215.4631, "ARG_OF_PERICENTER": 250.9229, "MEAN_ANOMALY": 173.1342, "EPHEMERIS_TYPE": 0, "CLASSIFICATION_TYPE": "U", "NORAD_CAT_ID": 37484, "ELEMENT_SET_NO": 999, "REV_AT_EPOCH": 65325, "BSTAR": 0.00081064, "MEAN_MOTION_DOT": 2.644e-05, "MEAN_MOTION_DDOT": 0}, "tle": {"line1": "1 37484U 93036BLM 25342.99866990  .00002644  00000+0  81064-3 0  9996", "line2": "2 37484  73.8236 215.4631 0040001 250.9229 173.1342 14.41757676653253"}}, "geometry": {"type": "Point", "coordinates": [22.39890415891281, 25.125408228990985]}}, {"type": "Feature", "properties": {"norad_id": 37486, "name": "COSMOS 2251 DEB", "group": "cosmos-2251-debris", "lat": 27.7089575830628, "lon": -72.53120267902432, "alt_km": 1007.1201032207264, "timestamp": "2025-12-11T18:59:46.473245+00:00", "meta": {"OBJECT_NAME": "COSMOS 2251 DEB", "OBJECT_ID": "1993-036BLP", "EPOCH": "2025-12-08T15:36:14.085792", "MEAN_MOTION": 14.13268533, "ECCENTRICITY": 0.0229186, "INCLINATION": 73.6904, "RA_OF_ASC_NODE": 121.9918, "ARG_OF_PERICENTER": 350.7921, "MEAN_ANOMALY": 22.951, "EPHEMERIS_TYPE": 0, "CLASSIFICATION_TYPE": "U", "NORAD_CAT_ID": 37486, "ELEMENT_SET_NO": 999, "REV_AT_EPOCH": 63312, "BSTAR": 0.0028521, "MEAN_MOTION_DOT": 6.844e-05, "MEAN_MOTION_DDOT": 0}, "tle": {"line1": "1 37486U 93036BLP 25342.65016303  .00006844  00000+0  28521-2 0  9990", "line2": "2 37486  73.6904 121.9918 0229186 350.7921  22.9510 14.13268533633125"}}, "geometry": {"type": "Point", "coordinates": [-72.53120267902432, 27.7089575830628]}}, {"type": "Feature", "properties": {"norad_id": 37487, "name": "COSMOS 2251 DEB", "group": "cosmos-2251-debris", "lat": 11.67698204781023, "lon": -162.6032141833591, "alt_km": 610.7226380457278, "timestamp": "2025-12-11T18:59:46.473256+00:00", "meta": {"OBJECT_NAME": "COSMOS 2251 DEB", "OBJECT_ID": "1993-036BLQ", "EPOCH": "2025-12-09T23:09:56.223648", "MEAN_MOTION": 14.80815093, "ECCENTRICITY": 0.00253501, "INCLINATION": 73.9017, "RA_OF_ASC_NODE": 197.6051, "ARG_OF_PERICENTER": 36.1899, "MEAN_ANOMALY": 324.0985, "EPHEMERIS_TYPE": 0, "CLASSIFICATION_TYPE": "U", "NORAD_CAT_ID": 37487, "ELEMENT_SET_NO": 999, "REV_AT_EPOCH": 81204, "BSTAR": 0.0039104448, "MEAN_MOTION_DOT": 0.00030433, "MEAN_MOTION_DDOT": 0}, "tle": {"line1": "1 37487U 93036BLQ 25343.96523407  .00030433  00000+0  39104-2 0  9994", "line2": "2 37487  73.9017 197.6051 0025350  36.1899 324.0985 14.80815093812043"}}, "geometry": {"type": "Point", "coordinates": [-162.6032141833591, 11.67698204781023]}}, {"type": "Feature", "properties": {"norad_id": 37491, "name": "COSMOS 2251 DEB", "group": "cosmos-2251-debris", "lat": 47.01319031665967, "lon": 77.64066156669442, "alt_km": 1148.0023010200266, "timestamp": "2025-12-11T18:59:46.473268+00:00", "meta": {"OBJECT_NAME": "COSMOS 2251 DEB", "OBJECT_ID": "1993-036BLU", "EPOCH": "2025-12-10T12:39:26.554752", "MEAN_MOTION": 13.75279669, "ECCENTRICITY": 0.0317504, "INCLINATION": 73.9065, "RA_OF_ASC_NODE": 277.8015, "ARG_OF_PERICENTER": 271.2819, "MEAN_ANOMALY": 85.1951, "EPHEMERIS_TYPE": 0, "CLASSIFICATION_TYPE": "U", "NORAD_CAT_ID": 37491, "ELEMENT_SET_NO": 999, "REV_AT_EPOCH": 55716, "BSTAR": 0.0018392, "MEAN_MOTION_DOT": 2.522e-05, "MEAN_MOTION_DDOT": 0}, "tle": {"line1": "1 37491U 93036BLU 25344.52739068  .00002522  00000+0  18392-2 0  9998", "line2": "2 37491  73.9065 277.8015 0317504 271.2819  85.1951 13.75279669557164"}}, "geometry": {"type": "Point", "coordinates": [77.64066156669442, 47.01319031665967]}}, {"type": "Feature", "properties": {"norad_id": 37498, "name": "COSMOS 2251 DEB", "group": "cosmos-2251-debris", "lat": -73.9906774856797, "lon": 91.77991099467965, "alt_km": 709.1038516929339, "timestamp": "2025-12-11T18:59:46.473278+00:00", "meta": {"OBJECT_NAME": "COSMOS 2251 DEB", "OBJECT_ID": "1993-036BMB", "EPOCH": "2025-12-10T07:06:15.238080", "MEAN_MOTION": 14.54745919, "ECCENTRICITY": 0.0012071, "INCLINATION": 74.0358, "RA_OF_ASC_NODE": 188.5072, "ARG_OF_PERICENTER": 251.507, "MEAN_ANOMALY": 108.4781, "EPHEMERIS_TYPE": 0, "CLASSIFICATION_TYPE": "U", "NORAD_CAT_ID": 37498, "ELEMENT_SET_NO": 999, "REV_AT_EPOCH": 65319, "BSTAR": 0.0008921, "MEAN_MOTION_DOT": 3.798e-05, "MEAN_MOTION_DDOT": 0}, "tle": {"line1": "1 37498U 93036BMB 25344.29600970  .00003798  00000+0  89210-3 0  9992", "line2": "2 37498  74.0358 188.5072 0012071 251.5070 108.4781 14.54745919653194"}}, "geometry": {"type": "Point", "coordinates": [91.77991099467965, -73.9906774856797]}}, {"type": "Feature", "properties": {"norad_id": 37499, "name": "COSMOS 2251 DEB", "group": "cosmos-2251-debris", "lat": -10.770057902934688, "lon": 147.04818408265962, "alt_km": 797.8977511235244, "timestamp": "2025-12-11T18:59:46.473289+00:00", "meta": {"OBJECT_NAME": "COSMOS 2251 DEB", "OBJECT_ID": "1993-036BMC", "EPOCH": "2025-12-10T05:17:01.570848", "MEAN_MOTION": 14.34338479, "ECCENTRICITY": 0.0026827, "INCLINATION": 74.0377, "RA_OF_ASC_NODE": 326.8027, "ARG_OF_PERICENTER": 43.5901, "MEAN_ANOMALY": 316.7364, "EPHEMERIS_TYPE": 0, "CLASSIFICATION_TYPE": "U", "NORAD_CAT_ID": 37499, "ELEMENT_SET_NO": 999, "REV_AT_EPOCH": 85113, "BSTAR": 0.00027087, "MEAN_MOTION_DOT": 7.38e-06, "MEAN_MOTION_DDOT": 0}, "tle": {"line1": "1 37499U 93036BMC 25344.22015707  .00000738  00000+0  27087-3 0  9999", "line2": "2 37499  74.0377 326.8027 0026827  43.5901 316.7364 14.34338479851131"}}, "geometry": {"type": "Point", "coordinates": [147.04818408265962, -10.770057902934688]}}]}